IRIDIUM 116             
1 43072U 17083C   25320.70008194  .00000474  00000+0  16237-3 0  9992
2 43072  86.3986  50.8159 0002028 106.5892 253.5527 14.34211647413717
IRIDIUM 130             
1 43073U 17083D   25320.66836687  .00000425  00000+0  14468-3 0  9994
2 43073  86.3993  51.0837 0001811 101.7513 258.3886 14.34211345413657
IRIDIUM 151             
1 43074U 17083E   25320.71275933  .00000438  00000+0  14939-3 0  9999
2 43074  86.3984  50.8632 0002087  99.9917 260.1514 14.34211484413686
IRIDIUM 134             
1 43075U 17083F   25320.68105525  .00000433  00000+0  14765-3 0  9997
2 43075  86.3990  50.8820 0001870  99.8108 260.3299 14.34213239413641
IRIDIUM 137             
1 43076U 17083G   25320.69373821  .00000329  00000+0  11046-3 0  9998
2 43076  86.3990  50.9650 0002381 107.2047 252.9409 14.34212526413714
IRIDIUM 141             
1 43077U 17083H   25320.68739948  .00000235  00000+0  76923-4 0  9996
2 43077  86.3985  50.8101 0002185  94.6271 265.5175 14.34212303413712
IRIDIUM 153             
1 43078U 17083J   25320.63957701  .00000192  00000+0  61466-4 0  9999
2 43078  86.4002  19.3210 0002108  86.4581 273.6856 14.34211921414816
IRIDIUM 131             
1 43079U 17083K   25320.67471529  .00000462  00000+0  15808-3 0  9991
2 43079  86.3991  50.9876 0002151  92.8339 267.3103 14.34213502413644
